STARLINK-31699          
1 59551U 24074T   26068.15266485 -.00002975  00000+0 -98612-4 0  9995
2 59551  43.0013 346.4327 0000668 316.0050  44.0749 15.27587018105932
FLOCK 4G-36             
1 62675U 25009BU  26068.70726311  .00013573  00000+0  51122-3 0  9993
2 62675  97.4053 151.0513 0003474 324.2456  35.8550 15.27209548 63701
